[Satellite]
VERSION=1.1
NAME=NOAA 1 [-]
NICKNAME=NOAA 1 [-]
TLE1=1 04793U 70106A   17186.20203716 -.00000043  00000-0  12289-4 0  9995
TLE2=2 04793 101.8006 251.2050 0031697 222.2805 205.5093 12.53981211130936
